BEIJING 1               
1 28890U 05043A   25066.39413670  .00000732  00000+0  15216-3 0  9990
2 28890  98.2263 193.9451 0013693 305.1915  54.8004 14.63003199 32368
HUANJING 1A (HJ-1A)     
1 33320U 08041A   25066.45019227  .00002395  00000+0  30633-3 0  9999
2 33320  97.6398  66.9434 0018324 226.6034 133.3654 14.82150132889320
HUANJING 1B (HJ-1B)     
1 33321U 08041B   25066.38748211  .00002013  00000+0  25837-3 0  9991
2 33321  97.6299  71.1891 0035716 275.0255  84.6882 14.81846368889337
YAOGAN-4                
1 33446U 08061A   25066.36853604  .00002316  00000+0  30089-3 0  9993
2 33446  97.8985 359.8581 0015565 145.5177 214.7048 14.81594569876503
DEIMOS-1                
1 35681U 09041A   25066.41214782  .00001365  00000+0  21307-3 0  9995
2 35681  97.6918 240.6009 0000258 182.1785 177.9424 14.74346880838089
UK-DMC 2                
1 35683U 09041C   25066.51598248  .00001816  00000+0  27861-3 0  9992
2 35683  97.8144 210.1898 0001138  81.5224 278.6114 14.74775457837800
DMC3-FM1                
1 40715U 15032A   25066.42201508  .00001248  00000+0  15307-3 0  9992
2 40715  97.7141 303.2412 0006452 137.9291 222.2421 14.84813914520625
DMC3-FM2                
1 40716U 15032B   25066.44420228  .00001252  00000+0  15342-3 0  9991
2 40716  97.7195 304.5117 0008130 145.5443 214.6300 14.84844046520621
DMC3-FM3                
1 40717U 15032C   25066.48562267  .00001207  00000+0  14859-3 0  9998
2 40717  97.7248 305.9554 0009634 143.5200 216.6673 14.84716713520635
